STARLINK-32255          
1 60417U 24141V   26068.70961049 -.00000487  00000+0 -43056-5 0  9991
2 60417  53.1587 242.4940 0001107  91.0152 269.0975 15.30197584 89582
TEVEL2-2                
1 63219U 25052K   26068.64848259  .00020339  00000+0  69428-3 0  9991
2 63219  97.3987 324.7700 0004693 105.7930 254.3828 15.30343745 54855
